[{"OBJECT_NAME":"BEIJING 1","OBJECT_ID":"2005-043A","EPOCH":"2022-08-18T08:47:57.489504","MEAN_MOTION":14.6147865,"ECCENTRICITY":0.0014848,"INCLINATION":98.1257,"RA_OF_ASC_NODE":351.6555,"ARG_OF_PERICENTER":345.5212,"MEAN_ANOMALY":14.5584,"EPHEMERIS_TYPE":0,"CLASSIFICATION_TYPE":"U","NORAD_CAT_ID":28890,"ELEMENT_SET_NO":999,"REV_AT_EPOCH":89618,"BSTAR":4.0783e-5,"MEAN_MOTION_DOT":1.55e-6,"MEAN_MOTION_DDOT":0},{"OBJECT_NAME":"HJ-1A","OBJECT_ID":"2008-041A","EPOCH":"2022-08-18T13:47:41.014464","MEAN_MOTION":14.77891945,"ECCENTRICITY":0.0021945,"INCLINATION":97.6741,"RA_OF_ASC_NODE":260.7109,"ARG_OF_PERICENTER":33.493,"MEAN_ANOMALY":326.7667,"EPHEMERIS_TYPE":0,"CLASSIFICATION_TYPE":"U","NORAD_CAT_ID":33320,"ELEMENT_SET_NO":999,"REV_AT_EPOCH":75156,"BSTAR":4.4916e-5,"MEAN_MOTION_DOT":2.75e-6,"MEAN_MOTION_DDOT":0},{"OBJECT_NAME":"HJ-1B","OBJECT_ID":"2008-041B","EPOCH":"2022-08-18T14:13:05.599488","MEAN_MOTION":14.77827288,"ECCENTRICITY":0.0035551,"INCLINATION":97.6912,"RA_OF_ASC_NODE":264.4181,"ARG_OF_PERICENTER":49.7592,"MEAN_ANOMALY":310.6727,"EPHEMERIS_TYPE":0,"CLASSIFICATION_TYPE":"U","NORAD_CAT_ID":33321,"ELEMENT_SET_NO":999,"REV_AT_EPOCH":75156,"BSTAR":0.00010302,"MEAN_MOTION_DOT":6.98e-6,"MEAN_MOTION_DDOT":0},{"OBJECT_NAME":"YAOGAN 4","OBJECT_ID":"2008-061A","EPOCH":"2022-08-18T09:59:06.595584","MEAN_MOTION":14.77436072,"ECCENTRICITY":0.0014877,"INCLINATION":97.8184,"RA_OF_ASC_NODE":168.6675,"ARG_OF_PERICENTER":296.313,"MEAN_ANOMALY":63.6553,"EPHEMERIS_TYPE":0,"CLASSIFICATION_TYPE":"U","NORAD_CAT_ID":33446,"ELEMENT_SET_NO":999,"REV_AT_EPOCH":73874,"BSTAR":7.9379e-5,"MEAN_MOTION_DOT":5.16e-6,"MEAN_MOTION_DDOT":0},{"OBJECT_NAME":"DEIMOS-1","OBJECT_ID":"2009-041A","EPOCH":"2022-08-18T14:11:29.917536","MEAN_MOTION":14.72090688,"ECCENTRICITY":0.0002589,"INCLINATION":97.7089,"RA_OF_ASC_NODE":78.4607,"ARG_OF_PERICENTER":53.8176,"MEAN_ANOMALY":306.3284,"EPHEMERIS_TYPE":0,"CLASSIFICATION_TYPE":"U","NORAD_CAT_ID":35681,"ELEMENT_SET_NO":999,"REV_AT_EPOCH":70091,"BSTAR":4.0826e-5,"MEAN_MOTION_DOT":2.11e-6,"MEAN_MOTION_DDOT":0},{"OBJECT_NAME":"UK-DMC 2","OBJECT_ID":"2009-041C","EPOCH":"2022-08-18T13:49:08.880672","MEAN_MOTION":14.71464445,"ECCENTRICITY":0.0001888,"INCLINATION":97.7023,"RA_OF_ASC_NODE":40.3023,"ARG_OF_PERICENTER":81.1754,"MEAN_ANOMALY":278.9679,"EPHEMERIS_TYPE":0,"CLASSIFICATION_TYPE":"U","NORAD_CAT_ID":35683,"ELEMENT_SET_NO":999,"REV_AT_EPOCH":70064,"BSTAR":6.1551e-5,"MEAN_MOTION_DOT":3.36e-6,"MEAN_MOTION_DDOT":0},{"OBJECT_NAME":"RISAT 1","OBJECT_ID":"2012-017A","EPOCH":"2022-08-18T11:17:51.239616","MEAN_MOTION":15.1227777,"ECCENTRICITY":0.0005353,"INCLINATION":97.553,"RA_OF_ASC_NODE":241.1697,"ARG_OF_PERICENTER":60.4741,"MEAN_ANOMALY":299.7023,"EPHEMERIS_TYPE":0,"CLASSIFICATION_TYPE":"U","NORAD_CAT_ID":38248,"ELEMENT_SET_NO":999,"REV_AT_EPOCH":56819,"BSTAR":0.0001531,"MEAN_MOTION_DOT":2.584e-5,"MEAN_MOTION_DDOT":0},{"OBJECT_NAME":"DMC3-FM1","OBJECT_ID":"2015-032A","EPOCH":"2022-08-18T13:50:22.047648","MEAN_MOTION":14.82168186,"ECCENTRICITY":0.0005223,"INCLINATION":97.8388,"RA_OF_ASC_NODE":116.1516,"ARG_OF_PERICENTER":331.3143,"MEAN_ANOMALY":28.7779,"EPHEMERIS_TYPE":0,"CLASSIFICATION_TYPE":"U","NORAD_CAT_ID":40715,"ELEMENT_SET_NO":999,"REV_AT_EPOCH":38249,"BSTAR":4.2416e-5,"MEAN_MOTION_DOT":2.86e-6,"MEAN_MOTION_DDOT":0},{"OBJECT_NAME":"DMC3-FM2","OBJECT_ID":"2015-032B","EPOCH":"2022-08-18T12:46:01.222176","MEAN_MOTION":14.82160613,"ECCENTRICITY":0.000724,"INCLINATION":97.8429,"RA_OF_ASC_NODE":116.7818,"ARG_OF_PERICENTER":330.7552,"MEAN_ANOMALY":29.3259,"EPHEMERIS_TYPE":0,"CLASSIFICATION_TYPE":"U","NORAD_CAT_ID":40716,"ELEMENT_SET_NO":999,"REV_AT_EPOCH":38249,"BSTAR":4.4515e-5,"MEAN_MOTION_DOT":3.02e-6,"MEAN_MOTION_DDOT":0},{"OBJECT_NAME":"DMC3-FM3","OBJECT_ID":"2015-032C","EPOCH":"2022-08-18T14:54:48.427776","MEAN_MOTION":14.82188632,"ECCENTRICITY":0.0009079,"INCLINATION":97.8463,"RA_OF_ASC_NODE":117.807,"ARG_OF_PERICENTER":326.2757,"MEAN_ANOMALY":33.7868,"EPHEMERIS_TYPE":0,"CLASSIFICATION_TYPE":"U","NORAD_CAT_ID":40717,"ELEMENT_SET_NO":999,"REV_AT_EPOCH":38250,"BSTAR":4.4803e-5,"MEAN_MOTION_DOT":3.05e-6,"MEAN_MOTION_DDOT":0}]