BEIJING 1               
1 28890U 05043A   22230.36663761  .00000155  00000+0  40783-4 0  9992
2 28890  98.1257 351.6555 0014848 345.5212  14.5584 14.61478650896189
HJ-1A                   
1 33320U 08041A   22230.57478026  .00000275  00000+0  44916-4 0  9993
2 33320  97.6741 260.7109 0021945  33.4930 326.7667 14.77891945751561
HJ-1B                   
1 33321U 08041B   22230.59242592  .00000698  00000+0  10302-3 0  9993
2 33321  97.6912 264.4181 0035551  49.7592 310.6727 14.77827288751563
YAOGAN 4                
1 33446U 08061A   22230.41604856  .00000516  00000+0  79379-4 0  9998
2 33446  97.8184 168.6675 0014877 296.3130  63.6553 14.77436072738747
DEIMOS-1                
1 35681U 09041A   22230.59131849  .00000211  00000+0  40826-4 0  9993
2 35681  97.7089  78.4607 0002589  53.8176 306.3284 14.72090688700919
UK-DMC 2                
1 35683U 09041C   22230.57579723  .00000336  00000+0  61551-4 0  9996
2 35683  97.7023  40.3023 0001888  81.1754 278.9679 14.71464445700643
RISAT 1                 
1 38248U 12017A   22230.47073194  .00002584  00000+0  15310-3 0  9991
2 38248  97.5530 241.1697 0005353  60.4741 299.7023 15.12277770568194
DMC3-FM1                
1 40715U 15032A   22230.57664407  .00000286  00000+0  42416-4 0  9992
2 40715  97.8388 116.1516 0005223 331.3143  28.7779 14.82168186382494
DMC3-FM2                
1 40716U 15032B   22230.53195859  .00000302  00000+0  44515-4 0  9990
2 40716  97.8429 116.7818 0007240 330.7552  29.3259 14.82160613382497
DMC3-FM3                
1 40717U 15032C   22230.62139384  .00000305  00000+0  44803-4 0  9995
2 40717  97.8463 117.8070 0009079 326.2757  33.7868 14.82188632382505
